E-ST@R-II               
1 41459U 16025D   22135.42547179  .00010239  00000+0  44977-3 0  9997
2 41459  98.1821 298.1549 0147058  21.9681 338.7844 15.12835754332505
AAUSAT 4                
1 41460U 16025E   22135.40228651  .00014538  00000+0  57379-3 0  9994
2 41460  98.1756 304.0391 0128173 359.0827   1.0228 15.18292110332921
BEESAT-4                
1 41619U 16040W   22135.10200158  .00018404  00000+0  63270-3 0  9999
2 41619  97.2199 186.6382 0008705 225.0401 135.0135 15.30105275315622
RAVAN                   
1 41849U 16067B   22135.17171287  .00004932  00000+0  39540-3 0  9994
2 41849  97.9957 271.1995 0017730  87.0466 273.2785 15.00481923301008
CELTEE 1                
1 41850U 16067C   22135.32422728  .00003296  00000+0  28185-3 0  9997
2 41850  97.9944 266.5375 0010520  87.6491 272.5935 14.98309823300798
OPTICUBE 04             
1 41851U 16067D   22135.15663166  .00001771  00000+0  15651-3 0  9992
2 41851  97.9902 265.4612 0009712  93.0648 267.1684 14.97670741300724
AEROCUBE 8D             
1 41852U 16067E   22134.84388638  .00004253  00000+0  36336-3 0  9997
2 41852  97.9901 265.1186 0011318  93.9413 266.3103 14.98172529300663
AEROCUBE 8C             
1 41853U 16067F   22135.35860417  .00003522  00000+0  30218-3 0  9996
2 41853  97.9883 265.4739 0010628  94.5705 265.6731 14.98138092300738
PROMETHEUS 2-1          
1 41854U 16067G   22135.15154183  .00005459  00000+0  45318-3 0  9999
2 41854  97.9886 266.2673 0009470  93.4176 266.8129 14.99171162300753
PROMETHEUS 2-3          
1 41855U 16067H   22134.87765055  .00005101  00000+0  42351-3 0  9992
2 41855  97.9897 266.0641 0009682  89.9446 270.2885 14.99198005300713
INS-1B                  
1 41954U 17008G   22134.71662884  .00015786  00000+0  53600-3 0  9996
2 41954  97.2606 195.3147 0007263   9.1132 351.0240 15.30552158291584
BGUSAT                  
1 41999U 17008BD  22135.13515115  .00038176  00000+0  99574-3 0  9994
2 41999  97.2832 205.6991 0004288   4.5282 355.6002 15.38724379291518
DIDO-2                  
1 42000U 17008BE  22134.63978149  .00008878  00000+0  32673-3 0  9995
2 42000  97.2594 194.7913 0008010  31.8297 328.3425 15.28057771290907
PEASSS                  
1 42015U 17008BV  22134.74419191  .00013483  00000+0  45506-3 0  9997
2 42015  97.2660 198.5229 0005640  32.1649 327.9935 15.30794348291611
AL-FARABI 1             
1 42016U 17008BW  22134.75956607  .00018568  00000+0  57771-3 0  9993
2 42016  97.2724 201.3745 0004808  28.5391 331.6114 15.33343260291883
NAYIF-1 (EO-88)         
1 42017U 17008BX  22135.16887470  .00020378  00000+0  63099-3 0  9993
2 42017  97.2713 201.7865 0004814  25.2685 334.8792 15.33477801291972
UCLSAT                  
1 42765U 17036A   22135.08661137  .00016381  00000+0  58438-3 0  9995
2 42765  97.2006 178.8072 0011507  87.2889 272.9668 15.28892910272162
LITUANICASAT-2          
1 42768U 17036D   22135.08584713  .00034141  00000+0  10419-2 0  9992
2 42768  97.2091 181.1939 0012436  75.1165 285.1455 15.33769225272138
AALTO-1                 
1 42775U 17036L   22134.84689961  .00009969  00000+0  39958-3 0  9994
2 42775  97.2007 173.8528 0014583  87.6031 272.6877 15.25110050271652
URSA MAIOR              
1 42776U 17036M   22134.90507348  .00010495  00000+0  41433-3 0  9997
2 42776  97.2019 174.6046 0014246  86.6494 273.6374 15.25610550271695
COMPASS 2               
1 42777U 17036N   22134.85486645  .00022440  00000+0  74280-3 0  9997
2 42777  97.2081 180.4866 0011554  78.4982 281.7556 15.31263053272007
DIAMOND RED             
1 42783U 17036U   22134.90443593  .00010582  00000+0  40294-3 0  9997
2 42783  97.2026 176.8630 0012615  91.4959 268.7725 15.26831660271820
PEGASUS                 
1 42784U 17036V   22134.40052592  .00013529  00000+0  49527-3 0  9990
2 42784  97.2024 177.4464 0012273  91.3105 268.9541 15.28077505271812
DIAMOND GREEN           
1 42785U 17036W   22135.36189760  .00009017  00000+0  34362-3 0  9993
2 42785  97.2028 177.3674 0012584  91.1346 269.1335 15.26852468271887
DIAMOND BLUE            
1 42786U 17036X   22135.36052527  .00012177  00000+0  46252-3 0  9996
2 42786  97.2030 177.3591 0012505  91.5945 268.6727 15.26880563271887
NUDTSAT                 
1 42787U 17036Y   22134.94517284  .00018756  00000+0  60266-3 0  9996
2 42787  97.2065 181.8274 0010694  80.7052 279.5402 15.32265141271966
SUCHAI                  
1 42788U 17036Z   22135.08817391  .00018129  00000+0  63119-3 0  9999
2 42788  97.2031 179.6547 0011499  86.0264 274.2291 15.29668023272080
SKCUBE                  
1 42789U 17036AA  22134.08780757  .00013281  00000+0  47313-3 0  9996
2 42789  97.2032 178.1901 0011608  89.6296 270.6275 15.28985192271827
VZLUSAT-1               
1 42790U 17036AB  22134.88470567  .00024663  00000+0  79344-3 0  9996
2 42790  97.2057 181.7429 0010271  82.5235 277.7174 15.32174921272104
ROBUSTA-1B              
1 42792U 17036AD  22135.10111534  .00016415  00000+0  57519-3 0  9996
2 42792  97.2024 179.7090 0011144  86.8064 273.4452 15.29483266272022
CICERO 6                
1 42793U 17036AE  22135.11969703  .00011244  00000+0  42853-3 0  9997
2 42793  97.2004 177.6345 0011059  91.0294 269.2212 15.26805343271981
CORVUS BC2              
1 42846U 17042X   22135.17016736  .00001713  00000+0  17051-3 0  9990
2 42846  97.4272 354.3578 0011039 105.7343 254.5095 14.92795427263314
CORVUS BC1              
1 42847U 17042Y   22135.38716841  .00001432  00000+0  14300-3 0  9990
2 42847  97.4273 354.8623 0010723 104.1460 256.0953 14.92901699263358
MIRATA                  
1 43015U 17073C   22134.70357783  .00007564  00000+0  55708-3 0  9992
2 43015  97.6782  31.2664 0238738 292.2539  65.3513 14.83573148242262
MAKERSAT 0              
1 43016U 17073D   22134.69787476  .00005598  00000+0  42120-3 0  9996
2 43016  97.6802  30.9144 0245149 296.2882  61.3333 14.82026842242195
AEROCUBE 7B (OCSD B)    
1 43042U 17071F   22134.92332901  .00137191  00000+0  10313-2 0  9991
2 43042  51.6322 215.5948 0006616 357.0885   3.0073 15.71595193250403
AEROCUBE 7C (OCSD C)    
1 43043U 17071G   22134.79199236  .00118554  00000+0  95225-3 0  9997
2 43043  51.6318 217.6857 0005866 357.0879   3.0083 15.70086764250331
ASGARDIA 1              
1 43049U 17071N   22134.83027541  .00096101  00000+0  87769-3 0  9994
2 43049  51.6330 218.8861 0004886 345.5221  14.5634 15.67053671250317
PROPCUBE 2 (FAUNA)      
1 43052U 17071R   22135.41550192  .00146502  00000+0  10487-2 0  9999
2 43052  51.6277 207.7212 0006832 352.3868   7.7026 15.72716156250515
CORVUS BC3              
1 43118U 18004H   22135.14796641  .00010708  00000+0  40826-3 0  9999
2 43118  97.3642 208.2921 0010911 118.4574 241.7765 15.26814014241131
MICROMAS-2A             
1 43131U 18004W   22134.79222580  .00028606  00000+0  85361-3 0  9999
2 43131  97.3769 214.0263 0008104 113.5478 246.6617 15.34563707241410
SPACEBEE-4              
1 43139U 18004AE  22135.16272762  .00055594  00000+0  13298-2 0  9991
2 43139  97.3864 218.8759 0006328 114.1001 246.0908 15.41265933241708
SPACEBEE-3              
1 43140U 18004AF  22135.16903605  .00095529  00000+0  17658-2 0  9996
2 43140  97.3906 222.1477 0004179 125.9433 234.2206 15.48708724241902
SPACEBEE-2              
1 43141U 18004AG  22135.17884978  .00121131  00000+0  19875-2 0  9991
2 43141  97.3925 223.4404 0003450 137.6641 222.4878 15.51996962241978
SPACEBEE-1              
1 43142U 18004AH  22135.15380926  .00164104  00000+0  22643-2 0  9998
2 43142  97.3927 224.8205 0002192 168.3856 191.7449 15.56622361242041
CICERO 7                
1 43143U 18004AJ  22135.43727828  .00021297  00000+0  67903-3 0  9990
2 43143  97.3746 214.3398 0007352 116.8960 243.3034 15.32521042241518
GOMX-4B                 
1 43196U 18015E   22134.86187439  .00009687  00000+0  37115-3 0  9995
2 43196  97.5285 273.9513 0017828 171.1823 188.9732 15.26591887238036
GOMX-4A                 
1 43197U 18015F   22135.46517840  .00009005  00000+0  32862-3 0  9994
2 43197  97.5269 275.2715 0017664 169.0761 262.0795 15.28228907238184
AEROCUBE 12A            
1 43556U 18046C   22134.79407425  .00023005  00000+0  61622-3 0  9991
2 43556  51.6384 347.8001 0006294 266.5307  93.4957 15.37885507214132
AEROCUBE 12B            
1 43557U 18046D   22134.88725443  .00018578  00000+0  52634-3 0  9997
2 43557  51.6389 351.3584 0006428 265.2573  94.7676 15.36283043214042
SURFSAT                 
1 43614U 18070B   22134.90033935  .00045312  00000+0  73486-3 0  9993
2 43614  93.0296  84.5243 0014140 134.6559 225.5857 15.52496615205856
CP7 (DAVE)              
1 43615U 18070C   22134.82116444  .00039098  00000+0  65625-3 0  9992
2 43615  93.0314  84.3686 0014126 136.7761 223.4612 15.51556924205810
ELFIN-B                 
1 43616U 18070D   22135.12744859  .00090391  00000+0  10305-2 0  9991
2 43616  93.0212  85.4750 0014240 126.3637 233.8946 15.61826081206143
ELFIN-A                 
1 43617U 18070E   22135.17285833  .00098458  00000+0  10520-2 0  9990
2 43617  93.0282  86.7688 0013812 122.0788 238.1822 15.63478942206196
CUBEBEL-1 (BSUSAT-1)    
1 43666U 18083E   22135.41406125  .00009363  00000+0  40499-3 0  9990
2 43666  97.4233 164.4821 0015306  90.4641  17.7948 15.22555742196459
CICERO 10               
1 43690U 18088A   22134.82782502  .00010419  00000+0  42468-3 0  9994
2 43690  85.0357 338.6585 0011284 271.6950  88.3000 15.24262244194630
IRVINE01                
1 43693U 18088D   22135.51525473  .00046203  00000+0  13365-2 0  9999
2 43693  85.0284 333.1471 0011634 225.8439 134.1855 15.35355426195162
PROXIMA I               
1 43694U 18088E   22135.01924406  .00010406  00000+0  40374-3 0  9991
2 43694  85.0288 335.3057 0015535 233.0758 126.9063 15.25852864194863
PROXIMA II              
1 43696U 18088G   22135.01898264  .00010286  00000+0  39928-3 0  9994
2 43696  85.0289 335.3228 0015589 232.9840 126.9978 15.25836039194866
